ONEWEB-0517             
1 54135U 22138Y   24027.76427293 -.00000002  00000+0 -37493-4 0  9992
2 54135  87.9195 118.4405 0002072 112.4499 247.6853 13.19725780 61895
ONEWEB-0518             
1 54136U 22138Z   24027.78322259  .00000042  00000+0  72123-4 0  9992
2 54136  87.9201 118.4409 0001823 112.8460 247.2865 13.19727137 61890
ONEWEB-0519             
1 54137U 22138AA  24027.80850775  .00000206  00000+0  48102-3 0  9996
2 54137  87.9194 118.4290 0002084 114.0730 246.0621 13.19727662 61906
ONEWEB-0520             
1 54138U 22138AB  24027.76743007  .00000055  00000+0  10393-3 0  9994
2 54138  87.9194 118.4392 0002362 106.9487 253.1904 13.19726474 61888
ONEWEB-0521             
1 54139U 22138AC  24027.80060516  .00000057  00000+0  10952-3 0  9990
2 54139  87.9193 118.4281 0001638 115.1101 245.0201 13.19724553 61836
ONEWEB-0522             
1 54140U 22138AD  24027.78007455  .00000049  00000+0  90394-4 0  9992
2 54140  87.9194 118.4335 0001921 102.5490 257.5858 13.19724589 61874
ONEWEB-0523             
1 54141U 22138AE  24027.67586856  .00000034  00000+0  52299-4 0  9994
2 54141  87.9167  87.9126 0001074  76.0188 284.1065 13.20770950 64268
ONEWEB-0524             
1 54142U 22138AF  24027.66481977  .00000089  00000+0  18712-3 0  9993
2 54142  87.9166  87.9190 0002233  68.0747 292.0623 13.20772813 64267
